{
    "links": {
        "self": "http://www.neowsapp.com/rest/v1/neo/54093090?api_key=iIulBulltgU6a56xZRHN4H3l9WmuAYTsLGpBGhQ2"
    },
    "id": "54093090",
    "neo_reference_id": "54093090",
    "name": "(2020 WT3)",
    "designation": "2020 WT3",
    "nasa_jpl_url": "http://ssd.jpl.nasa.gov/sbdb.cgi?sstr=54093090",
    "absolute_magnitude_h": 18.949,
    "estimated_diameter": {
        "kilometers": {
            "estimated_diameter_min": 0.4312756879,
            "estimated_diameter_max": 0.9643617553
        },
        "meters": {
            "estimated_diameter_min": 431.2756879474,
            "estimated_diameter_max": 964.3617552935
        },
        "miles": {
            "estimated_diameter_min": 0.2679822055,
            "estimated_diameter_max": 0.5992264282
        },
        "feet": {
            "estimated_diameter_min": 1414.9465280455,
            "estimated_diameter_max": 3163.916621237
        }
    },
    "is_potentially_hazardous_asteroid": false,
    "close_approach_data": [
        {
            "close_approach_date": "1997-04-14",
            "close_approach_date_full": "1997-Apr-14 01:43",
            "epoch_date_close_approach": 860982180000,
            "relative_velocity": {
                "kilometers_per_second": "38.6096104805",
                "kilometers_per_hour": "138994.5977299199",
                "miles_per_hour": "86365.8376839049"
            },
            "miss_distance": {
                "astronomical": "0.3453316037",
                "lunar": "134.3339938393",
                "kilometers": "51660872.357204119",
                "miles": "32100577.5592060822"
            },
            "orbiting_body": "Earth"
        },
        {
            "close_approach_date": "2010-04-01",
            "close_approach_date_full": "2010-Apr-01 21:39",
            "epoch_date_close_approach": 1270157940000,
            "relative_velocity": {
                "kilometers_per_second": "39.0167805339",
                "kilometers_per_hour": "140460.4099219698",
                "miles_per_hour": "87276.6363762373"
            },
            "miss_distance": {
                "astronomical": "0.4340184541",
                "lunar": "168.8331786449",
                "kilometers": "64928236.274052767",
                "miles": "40344535.2197395046"
            },
            "orbiting_body": "Earth"
        },
        {
            "close_approach_date": "2021-05-16",
            "close_approach_date_full": "2021-May-16 07:46",
            "epoch_date_close_approach": 1621151160000,
            "relative_velocity": {
                "kilometers_per_second": "40.2117781953",
                "kilometers_per_hour": "144762.4015030267",
                "miles_per_hour": "89949.7266450335"
            },
            "miss_distance": {
                "astronomical": "0.4384022923",
                "lunar": "170.5384917047",
                "kilometers": "65584049.131197401",
                "miles": "40752038.4329940938"
            },
            "orbiting_body": "Earth"
        },
        {
            "close_approach_date": "2034-05-05",
            "close_approach_date_full": "2034-May-05 12:59",
            "epoch_date_close_approach": 2030446740000,
            "relative_velocity": {
                "kilometers_per_second": "39.209519689",
                "kilometers_per_hour": "141154.270880521",
                "miles_per_hour": "87707.7745923993"
            },
            "miss_distance": {
                "astronomical": "0.353472122",
                "lunar": "137.500655458",
                "kilometers": "52878676.55558014",
                "miles": "32857285.999040332"
            },
            "orbiting_body": "Earth"
        },
        {
            "close_approach_date": "2047-04-25",
            "close_approach_date_full": "2047-Apr-25 21:36",
            "epoch_date_close_approach": 2439840960000,
            "relative_velocity": {
                "kilometers_per_second": "38.7224302973",
                "kilometers_per_hour": "139400.7490704499",
                "miles_per_hour": "86618.204332136"
            },
            "miss_distance": {
                "astronomical": "0.3192972394",
                "lunar": "124.2066261266",
                "kilometers": "47766186.911120078",
                "miles": "29680532.2420019564"
            },
            "orbiting_body": "Earth"
        }
    ],
    "orbital_data": {
        "orbit_id": "2",
        "orbit_determination_date": "2020-12-05 10:16:14",
        "first_observation_date": "2020-11-04",
        "last_observation_date": "2020-12-05",
        "data_arc_in_days": 31,
        "observations_used": 29,
        "orbit_uncertainty": "6",
        "minimum_orbit_intersection": ".319511",
        "jupiter_tisserand_invariant": "3.918",
        "epoch_osculation": "2459000.5",
        "eccentricity": ".5497418257028879",
        "semi_major_axis": "1.508403685501591",
        "inclination": "58.63919692228109",
        "ascending_node_longitude": "33.01288064297257",
        "orbital_period": "676.6666993153194",
        "perihelion_distance": ".6791710895369816",
        "perihelion_argument": "167.105913303148",
        "aphelion_distance": "2.3376362814662",
        "perihelion_time": "2458666.382491286273",
        "mean_anomaly": "177.7570896552889",
        "mean_motion": ".5320196787639521",
        "equinox": "J2000",
        "orbit_class": {
            "orbit_class_type": "APO",
            "orbit_class_description": "Near-Earth asteroid orbits which cross the Earth’s orbit similar to that of 1862 Apollo",
            "orbit_class_range": "a (semi-major axis) > 1.0 AU; q (perihelion) < 1.017 AU"
        }
    },
    "is_sentry_object": false
}